[{"OBJECT_NAME":"STARLINK-36186","OBJECT_ID":"2025-303C","EPOCH":"2026-03-09T01:36:24.057504","MEAN_MOTION":15.27582949,"ECCENTRICITY":0.00017453,"INCLINATION":43.0028,"RA_OF_ASC_NODE":313.9149,"ARG_OF_PERICENTER":273.9123,"MEAN_ANOMALY":86.1529,"EPHEMERIS_TYPE":0,"CLASSIFICATION_TYPE":"U","NORAD_CAT_ID":67165,"ELEMENT_SET_NO":999,"REV_AT_EPOCH":1264,"BSTAR":0.0014413292,"MEAN_MOTION_DOT":0.00039617,"MEAN_MOTION_DDOT":0},{"OBJECT_NAME":"CZ-6A DEB","OBJECT_ID":"2022-151DE","EPOCH":"2026-03-09T09:45:43.657920","MEAN_MOTION":15.34292219,"ECCENTRICITY":0.00393756,"INCLINATION":99.0022,"RA_OF_ASC_NODE":218.5596,"ARG_OF_PERICENTER":192.6197,"MEAN_ANOMALY":167.4059,"EPHEMERIS_TYPE":0,"CLASSIFICATION_TYPE":"U","NORAD_CAT_ID":54359,"ELEMENT_SET_NO":999,"REV_AT_EPOCH":10560,"BSTAR":0.0065240017,"MEAN_MOTION_DOT":0.00228186,"MEAN_MOTION_DDOT":0}]
